{
"type": "FeatureCollection",
"name": "aoi_counties",
"crs": { "type": "name", "properties": { "name": "urn:ogc:def:crs:OGC:1.3:CRS84" } },
"features": [
{ "type": "Feature", "properties": { "GEOID": "06029", "NAME": "Kern", "NAMELSAD": "Kern County" }, "geometry": { "type": "Polygon", "coordinates": [ [ [ -118.880416, 34.817843 ], [ -118.894634, 34.817972 ], [ -118.880405, 34.788655 ], [ -118.978022, 34.789809 ], [ -118.977926, 34.811714 ], [ -119.242534, 34.814323 ], [ -119.242581, 34.857598 ], [ -119.277245, 34.857284 ], [ -119.276435, 34.872481 ], [ -119.355532, 34.872536 ], [ -119.355528, 34.87368 ], [ -119.381854, 34.87399 ], [ -119.383705, 34.900817 ], [ -119.472494, 34.901378 ], [ -119.472552, 35.076669 ], [ -119.490539, 35.076679 ], [ -119.49038, 35.091646 ], [ -119.561752, 35.087831 ], [ -119.553819, 35.180123 ], [ -119.571515, 35.180234 ], [ -119.667304, 35.174982 ], [ -119.666585, 35.262635 ], [ -119.809407, 35.263693 ], [ -119.80921, 35.35094 ], [ -119.880356, 35.351124 ], [ -119.880045, 35.439133 ], [ -119.99315, 35.43947 ], [ -119.99314, 35.45428 ], [ -119.997449, 35.468708 ], [ -120.015113, 35.468838 ], [ -120.014305, 35.483396 ], [ -120.032867, 35.483497 ], [ -120.033017, 35.498294 ], [ -120.050927, 35.498248 ], [ -120.051016, 35.513066 ], [ -120.069007, 35.512938 ], [ -120.068777, 35.526557 ], [ -120.086766, 35.526432 ], [ -120.08618, 35.614397 ], [ -120.193988, 35.614389 ], [ -120.194369, 35.789363 ], [ -119.733815, 35.788947 ], [ -118.815461, 35.790167 ], [ -118.570789, 35.789721 ], [ -118.467158, 35.79245 ], [ -118.360993, 35.790256 ], [ -118.254417, 35.790197 ], [ -118.058925, 35.791474 ], [ -117.938389, 35.786579 ], [ -117.923003, 35.786686 ], [ -117.924406, 35.798359 ], [ -117.634291, 35.797658 ], [ -117.634315, 35.70983 ], [ -117.652136, 35.709858 ], [ -117.652184, 35.680771 ], [ -117.616518, 35.680687 ], [ -117.616518, 35.651611 ], [ -117.634346, 35.651571 ], [ -117.634607, 35.564258 ], [ -117.630076, 35.564254 ], [ -117.629686, 35.466159 ], [ -117.630219, 35.451409 ], [ -117.633662, 35.45141 ], [ -117.633727, 35.43454 ], [ -117.631295, 35.419566 ], [ -117.632474, 35.405582 ], [ -117.631131, 35.361724 ], [ -117.63088, 35.097604 ], [ -117.63329, 35.097558 ], [ -117.632151, 34.822271 ], [ -117.987678, 34.822625 ], [ -118.484544, 34.818213 ], [ -118.854009, 34.817758 ], [ -118.854114, 34.803279 ], [ -118.876722, 34.803203 ], [ -118.884057, 34.810817 ], [ -118.884111, 34.813641 ], [ -118.880416, 34.817843 ] ] ] } },
{ "type": "Feature", "properties": { "GEOID": "06037", "NAME": "Los Angeles", "NAMELSAD": "Los Angeles County" }, "geometry": { "type": "MultiPolygon", "coordinates": [ [ [ [ -118.678204, 33.039726 ], [ -118.675605, 33.049349 ], [ -118.663846, 33.066846 ], [ -118.654363, 33.074952 ], [ -118.641301, 33.081882 ], [ -118.632642, 33.084539 ], [ -118.619621, 33.086719 ], [ -118.578337, 33.086243 ], [ -118.552627, 33.078633 ], [ -118.542103, 33.073788 ], [ -118.523727, 33.059972 ], [ -118.514966, 33.049889 ], [ -118.507663, 33.037883 ], [ -118.495582, 33.026336 ], [ -118.491132, 33.017923 ], [ -118.489497, 33.01063 ], [ -118.448863, 32.96175 ], [ -118.423338, 32.946483 ], [ -118.390787, 32.917841 ], [ -118.362519, 32.900117 ], [ -118.337457, 32.879748 ], [ -118.328898, 32.875037 ], [ -118.31739, 32.863765 ], [ -118.310343, 32.859505 ], [ -118.29725, 32.845094 ], [ -118.289894, 32.829383 ], [ -118.288946, 32.81615 ], [ -118.292813, 32.803804 ], [ -118.302848, 32.788846 ], [ -118.318528, 32.7768 ], [ -118.331974, 32.77057 ], [ -118.343192, 32.767062 ], [ -118.353494, 32.765807 ], [ -118.378377, 32.770232 ], [ -118.392557, 32.758501 ], [ -118.412621, 32.751102 ], [ -118.438846, 32.75039 ], [ -118.453808, 32.755111 ], [ -118.468374, 32.762594 ], [ -118.477926, 32.770621 ], [ -118.484974, 32.779158 ], [ -118.50765, 32.796877 ], [ -118.520433, 32.801963 ], [ -118.538197, 32.81277 ], [ -118.553186, 32.828797 ], [ -118.562528, 32.849438 ], [ -118.59693, 32.890466 ], [ -118.605289, 32.90854 ], [ -118.605471, 32.918204 ], [ -118.608802, 32.92769 ], [ -118.622117, 32.941434 ], [ -118.635522, 32.9656 ], [ -118.644732, 33.000033 ], [ -118.670173, 33.000034 ], [ -118.678551, 33.026356 ], [ -118.678204, 33.039726 ] ] ], [ [ [ -118.668203, 33.485937 ], [ -118.66371, 33.500025 ], [ -118.655735, 33.510818 ], [ -118.644058, 33.521284 ], [ -118.625916, 33.528978 ], [ -118.605014, 33.532206 ], [ -118.589719, 33.531978 ], [ -118.579144, 33.52841 ], [ -118.567188, 33.529482 ], [ -118.55775, 33.528328 ], [ -118.546602, 33.530841 ], [ -118.529382, 33.531182 ], [ -118.506757, 33.524911 ], [ -118.493335, 33.515726 ], [ -118.477276, 33.515434 ], [ -118.462853, 33.510427 ], [ -118.44755, 33.500025 ], [ -118.436835, 33.489443 ], [ -118.427095, 33.487161 ], [ -118.420841, 33.481782 ], [ -118.40323, 33.479267 ], [ -118.359393, 33.464922 ], [ -118.350918, 33.457818 ], [ -118.332773, 33.448044 ], [ -118.316351, 33.434137 ], [ -118.310947, 33.425137 ], [ -118.306591, 33.407155 ], [ -118.304102, 33.403632 ], [ -118.294666, 33.397593 ], [ -118.27721, 33.380743 ], [ -118.262748, 33.37044 ], [ -118.251379, 33.353397 ], [ -118.245102, 33.338341 ], [ -118.241286, 33.323023 ], [ -118.241051, 33.313029 ], [ -118.24594, 33.291061 ], [ -118.250903, 33.280465 ], [ -118.250897, 33.281444 ], [ -118.259178, 33.272505 ], [ -118.269178, 33.26568 ], [ -118.292458, 33.254078 ], [ -118.313773, 33.249138 ], [ -118.327993, 33.248083 ], [ -118.343772, 33.25003 ], [ -118.363311, 33.255074 ], [ -118.381487, 33.262298 ], [ -118.385589, 33.265358 ], [ -118.402557, 33.267937 ], [ -118.412049, 33.266275 ], [ -118.437654, 33.267018 ], [ -118.455072, 33.269019 ], [ -118.486688, 33.276905 ], [ -118.510386, 33.289659 ], [ -118.534885, 33.315176 ], [ -118.547476, 33.34048 ], [ -118.551193, 33.369352 ], [ -118.547929, 33.376799 ], [ -118.553376, 33.380226 ], [ -118.573197, 33.383479 ], [ -118.59108, 33.390872 ], [ -118.607228, 33.398294 ], [ -118.618574, 33.406191 ], [ -118.625917, 33.414265 ], [ -118.630734, 33.423203 ], [ -118.655057, 33.44531 ], [ -118.66175, 33.456317 ], [ -118.665919, 33.467334 ], [ -118.668203, 33.485937 ] ] ], [ [ [ -118.028782, 33.873322 ], [ -118.028716, 33.866046 ], [ -118.037598, 33.866013 ], [ -118.037536, 33.862369 ], [ -118.041884, 33.862332 ], [ -118.041853, 33.858715 ], [ -118.046188, 33.858688 ], [ -118.046082, 33.853611 ], [ -118.050402, 33.853539 ], [ -118.050375, 33.849872 ], [ -118.054723, 33.849821 ], [ -118.054687, 33.846218 ], [ -118.05904, 33.846195 ], [ -118.058988, 33.835207 ], [ -118.063322, 33.831541 ], [ -118.06317, 33.819681 ], [ -118.072833, 33.814856 ], [ -118.084744, 33.80291 ], [ -118.086228, 33.796879 ], [ -118.096985, 33.777907 ], [ -118.09706, 33.773723 ], [ -118.092332, 33.764532 ], [ -118.09197, 33.758472 ], [ -118.11406, 33.746138 ], [ -118.147806, 33.694083 ], [ -118.16583, 33.691563 ], [ -118.237008, 33.690595 ], [ -118.254528, 33.67507 ], [ -118.274239, 33.663429 ], [ -118.319135, 33.659547 ], [ -118.345415, 33.663427 ], [ -118.377171, 33.678953 ], [ -118.385931, 33.686712 ], [ -118.428637, 33.701266 ], [ -118.466962, 33.725524 ], [ -118.485577, 33.753664 ], [ -118.487768, 33.779865 ], [ -118.484483, 33.803154 ], [ -118.469153, 33.818679 ], [ -118.450538, 33.832265 ], [ -118.443968, 33.839057 ], [ -118.447254, 33.84876 ], [ -118.47682, 33.889513 ], [ -118.500912, 33.918621 ], [ -118.508627, 33.932517 ], [ -118.523447, 33.953049 ], [ -118.533474, 33.961794 ], [ -118.548417, 33.97997 ], [ -118.557356, 33.987673 ], [ -118.569687, 33.988811 ], [ -118.586577, 33.987013 ], [ -118.594079, 33.988065 ], [ -118.604389, 33.986283 ], [ -118.625916, 33.987233 ], [ -118.633067, 33.985645 ], [ -118.648348, 33.986729 ], [ -118.650161, 33.985116 ], [ -118.666514, 33.980562 ], [ -118.680815, 33.97916 ], [ -118.689144, 33.97995 ], [ -118.704574, 33.97784 ], [ -118.727459, 33.980307 ], [ -118.735528, 33.977035 ], [ -118.746391, 33.975501 ], [ -118.754411, 33.967792 ], [ -118.786528, 33.95143 ], [ -118.797728, 33.948212 ], [ -118.809827, 33.946905 ], [ -118.824893, 33.949042 ], [ -118.841116, 33.955371 ], [ -118.856846, 33.96597 ], [ -118.873998, 33.983314 ], [ -118.887301, 33.987223 ], [ -118.931653, 33.99211 ], [ -118.940438, 33.991452 ], [ -118.951721, 33.992858 ], [ -118.940965, 34.07483 ], [ -118.788889, 34.168214 ], [ -118.668152, 34.168195 ], [ -118.667714, 34.240345 ], [ -118.632494, 34.240391 ], [ -118.632548, 34.263429 ], [ -118.636789, 34.291804 ], [ -118.8144, 34.652422 ], [ -118.894634, 34.817972 ], [ -118.880416, 34.817843 ], [ -118.884111, 34.813641 ], [ -118.884057, 34.810817 ], [ -118.876722, 34.803203 ], [ -118.854114, 34.803279 ], [ -118.854009, 34.817758 ], [ -118.484544, 34.818213 ], [ -117.987678, 34.822625 ], [ -117.667459, 34.822528 ], [ -117.667121, 34.557906 ], [ -117.660401, 34.557892 ], [ -117.659757, 34.452769 ], [ -117.646374, 34.28917 ], [ -117.678501, 34.161993 ], [ -117.686799, 34.138122 ], [ -117.716475, 34.067577 ], [ -117.727359, 34.037389 ], [ -117.730125, 34.021371 ], [ -117.735846, 34.018554 ], [ -117.767657, 34.023508 ], [ -117.767525, 34.004695 ], [ -117.785033, 34.004854 ], [ -117.802539, 33.975551 ], [ -117.802445, 33.968308 ], [ -117.793667, 33.968135 ], [ -117.793551, 33.953822 ], [ -117.783252, 33.946261 ], [ -117.911415, 33.946068 ], [ -117.91956, 33.947636 ], [ -117.919559, 33.946081 ], [ -117.976498, 33.94605 ], [ -117.976593, 33.90281 ], [ -117.985405, 33.902766 ], [ -117.985327, 33.895509 ], [ -117.994136, 33.895513 ], [ -117.994057, 33.888218 ], [ -118.002855, 33.888161 ], [ -118.002754, 33.880894 ], [ -118.011474, 33.880846 ], [ -118.011383, 33.873431 ], [ -118.028782, 33.873322 ] ] ] ] } },
{ "type": "Feature", "properties": { "GEOID": "06079", "NAME": "San Luis Obispo", "NAMELSAD": "San Luis Obispo County" }, "geometry": { "type": "Polygon", "coordinates": [ [ [ -120.707095, 35.10429 ], [ -120.725503, 35.113576 ], [ -120.738496, 35.10964 ], [ -120.772669, 35.110479 ], [ -120.800411, 35.116577 ], [ -120.808391, 35.120545 ], [ -120.821991, 35.131441 ], [ -120.830594, 35.131869 ], [ -120.83942, 35.134654 ], [ -120.856926, 35.142812 ], [ -120.871703, 35.153709 ], [ -120.876014, 35.159718 ], [ -120.896839, 35.171343 ], [ -120.917792, 35.187378 ], [ -120.927919, 35.199433 ], [ -120.930202, 35.204635 ], [ -120.937349, 35.208047 ], [ -120.949032, 35.22102 ], [ -120.960247, 35.243622 ], [ -120.961253, 35.249975 ], [ -120.959375, 35.265437 ], [ -120.95333, 35.284847 ], [ -120.928602, 35.330711 ], [ -120.923435, 35.348413 ], [ -120.928285, 35.360962 ], [ -120.930797, 35.374974 ], [ -120.930244, 35.383087 ], [ -120.928286, 35.386843 ], [ -120.933292, 35.392748 ], [ -120.95967, 35.396494 ], [ -120.976828, 35.403557 ], [ -120.989632, 35.411139 ], [ -121.005555, 35.409503 ], [ -121.015005, 35.410629 ], [ -121.041635, 35.41999 ], [ -121.052308, 35.428546 ], [ -121.069057, 35.447252 ], [ -121.082954, 35.455643 ], [ -121.092238, 35.466672 ], [ -121.100138, 35.470878 ], [ -121.111208, 35.481322 ], [ -121.118171, 35.490604 ], [ -121.122048, 35.493615 ], [ -121.128266, 35.495609 ], [ -121.151056, 35.516412 ], [ -121.177756, 35.561255 ], [ -121.187705, 35.569077 ], [ -121.201555, 35.58369 ], [ -121.220123, 35.586874 ], [ -121.231811, 35.594039 ], [ -121.246589, 35.600363 ], [ -121.25981, 35.601756 ], [ -121.270416, 35.606479 ], [ -121.286036, 35.608436 ], [ -121.30998, 35.617095 ], [ -121.323512, 35.624969 ], [ -121.339645, 35.642428 ], [ -121.347721, 35.664984 ], [ -121.366362, 35.680419 ], [ -121.37896, 35.706026 ], [ -121.37715, 35.71647 ], [ -121.379327, 35.726959 ], [ -121.385629, 35.733688 ], [ -121.393738, 35.749968 ], [ -121.39346, 35.763401 ], [ -121.399754, 35.765342 ], [ -121.428496, 35.785905 ], [ -121.438176, 35.796655 ], [ -121.399713, 35.795246 ], [ -120.864288, 35.791738 ], [ -120.194369, 35.789363 ], [ -120.193988, 35.614389 ], [ -120.08618, 35.614397 ], [ -120.086766, 35.526432 ], [ -120.068777, 35.526557 ], [ -120.069007, 35.512938 ], [ -120.051016, 35.513066 ], [ -120.050927, 35.498248 ], [ -120.033017, 35.498294 ], [ -120.032867, 35.483497 ], [ -120.014305, 35.483396 ], [ -120.015113, 35.468838 ], [ -119.997449, 35.468708 ], [ -119.99314, 35.45428 ], [ -119.99315, 35.43947 ], [ -119.880045, 35.439133 ], [ -119.880356, 35.351124 ], [ -119.80921, 35.35094 ], [ -119.809407, 35.263693 ], [ -119.666585, 35.262635 ], [ -119.667304, 35.174982 ], [ -119.571515, 35.180234 ], [ -119.553819, 35.180123 ], [ -119.561752, 35.087831 ], [ -119.49038, 35.091646 ], [ -119.490539, 35.076679 ], [ -119.472552, 35.076669 ], [ -119.472489, 34.901175 ], [ -119.490355, 34.901174 ], [ -119.490455, 34.897475 ], [ -119.535757, 34.897576 ], [ -119.562958, 34.914775 ], [ -119.579859, 34.922775 ], [ -119.586059, 34.927275 ], [ -119.59246, 34.935076 ], [ -119.61502, 34.950351 ], [ -119.624761, 34.949175 ], [ -119.634861, 34.953875 ], [ -119.644262, 34.953575 ], [ -119.655282, 34.963801 ], [ -119.664269, 34.969876 ], [ -119.673563, 34.973575 ], [ -119.678624, 34.971775 ], [ -119.684564, 34.972068 ], [ -119.700564, 34.976674 ], [ -119.708465, 34.975476 ], [ -119.718565, 34.971476 ], [ -119.724667, 34.973577 ], [ -119.727005, 34.976132 ], [ -119.72933, 34.974649 ], [ -119.740067, 34.973076 ], [ -119.745566, 34.973676 ], [ -119.755039, 34.980007 ], [ -119.763859, 34.982084 ], [ -119.780402, 34.990729 ], [ -119.785656, 34.988273 ], [ -119.789292, 34.98867 ], [ -119.798997, 34.993249 ], [ -119.801025, 34.998859 ], [ -119.803878, 34.997613 ], [ -119.809949, 35.002097 ], [ -119.81317, 35.00067 ], [ -119.82436, 35.004951 ], [ -119.830825, 35.005781 ], [ -119.84118, 35.015015 ], [ -119.84417, 35.015476 ], [ -119.84798, 35.025418 ], [ -119.851473, 35.027551 ], [ -119.851513, 35.030704 ], [ -119.854517, 35.032149 ], [ -119.863329, 35.031425 ], [ -119.865997, 35.035083 ], [ -119.875087, 35.035689 ], [ -119.878272, 35.039713 ], [ -119.889652, 35.040629 ], [ -119.901968, 35.035793 ], [ -119.901898, 35.039004 ], [ -119.907066, 35.03791 ], [ -119.906949, 35.039176 ], [ -119.910251, 35.039563 ], [ -119.908291, 35.043553 ], [ -119.912102, 35.044691 ], [ -119.909429, 35.045953 ], [ -119.917307, 35.048977 ], [ -119.918359, 35.053142 ], [ -119.921791, 35.052543 ], [ -119.928419, 35.059794 ], [ -119.931612, 35.056343 ], [ -119.939005, 35.054992 ], [ -119.937861, 35.057083 ], [ -119.93992, 35.05801 ], [ -119.94272, 35.054439 ], [ -119.94507, 35.054561 ], [ -119.94557, 35.056054 ], [ -119.949221, 35.055929 ], [ -119.948766, 35.057177 ], [ -119.95221, 35.05734 ], [ -119.95427, 35.054588 ], [ -119.955888, 35.054896 ], [ -119.955784, 35.057179 ], [ -119.960689, 35.055712 ], [ -119.961909, 35.058328 ], [ -119.965022, 35.058825 ], [ -119.966946, 35.056322 ], [ -119.970927, 35.058757 ], [ -119.97572, 35.058266 ], [ -119.977872, 35.059476 ], [ -119.980122, 35.057573 ], [ -119.981278, 35.058322 ], [ -119.979639, 35.059107 ], [ -119.979662, 35.061865 ], [ -119.982453, 35.061191 ], [ -119.988558, 35.064929 ], [ -119.992559, 35.062931 ], [ -120.002017, 35.073205 ], [ -120.005596, 35.071799 ], [ -120.00981, 35.07529 ], [ -120.013582, 35.075578 ], [ -120.014049, 35.081447 ], [ -120.018264, 35.082358 ], [ -120.023322, 35.080311 ], [ -120.024857, 35.080964 ], [ -120.024078, 35.08404 ], [ -120.025825, 35.08484 ], [ -120.029313, 35.083571 ], [ -120.032817, 35.087824 ], [ -120.039558, 35.089152 ], [ -120.041873, 35.085864 ], [ -120.044038, 35.085993 ], [ -120.048521, 35.089901 ], [ -120.05994, 35.092972 ], [ -120.061219, 35.095354 ], [ -120.067313, 35.096762 ], [ -120.071984, 35.101826 ], [ -120.072415, 35.10471 ], [ -120.080739, 35.104895 ], [ -120.084938, 35.10761 ], [ -120.085419, 35.10971 ], [ -120.083397, 35.109574 ], [ -120.079307, 35.112672 ], [ -120.082084, 35.114678 ], [ -120.088287, 35.112977 ], [ -120.093277, 35.114202 ], [ -120.097913, 35.109502 ], [ -120.09977, 35.112916 ], [ -120.102174, 35.113359 ], [ -120.102279, 35.108445 ], [ -120.108331, 35.108884 ], [ -120.1074, 35.104722 ], [ -120.109598, 35.103486 ], [ -120.11268, 35.103513 ], [ -120.116861, 35.106676 ], [ -120.11674, 35.104428 ], [ -120.119677, 35.102922 ], [ -120.119332, 35.098447 ], [ -120.12221, 35.097761 ], [ -120.124377, 35.099695 ], [ -120.127612, 35.09091 ], [ -120.130496, 35.091505 ], [ -120.130039, 35.096117 ], [ -120.132213, 35.095403 ], [ -120.135967, 35.09786 ], [ -120.138332, 35.094182 ], [ -120.14317, 35.095739 ], [ -120.141514, 35.091066 ], [ -120.144268, 35.090475 ], [ -120.145344, 35.08819 ], [ -120.144192, 35.086786 ], [ -120.140873, 35.086802 ], [ -120.142918, 35.082216 ], [ -120.148968, 35.084452 ], [ -120.149388, 35.081469 ], [ -120.155271, 35.081995 ], [ -120.155568, 35.078104 ], [ -120.167616, 35.075297 ], [ -120.171706, 35.070254 ], [ -120.174575, 35.070242 ], [ -120.174636, 35.068903 ], [ -120.172782, 35.068514 ], [ -120.172934, 35.064269 ], [ -120.180145, 35.061606 ], [ -120.180572, 35.054706 ], [ -120.184913, 35.049094 ], [ -120.180504, 35.038035 ], [ -120.186401, 35.036552 ], [ -120.188383, 35.030378 ], [ -120.203324, 35.028655 ], [ -120.204766, 35.025482 ], [ -120.21029, 35.023767 ], [ -120.209907, 35.020582 ], [ -120.215769, 35.022617 ], [ -120.220934, 35.02111 ], [ -120.224574, 35.022735 ], [ -120.231799, 35.020515 ], [ -120.232974, 35.023552 ], [ -120.24068, 35.02243 ], [ -120.247684, 35.026531 ], [ -120.249988, 35.030059 ], [ -120.25272, 35.028144 ], [ -120.257451, 35.017589 ], [ -120.261321, 35.021368 ], [ -120.259941, 35.025916 ], [ -120.261396, 35.026606 ], [ -120.266593, 35.021257 ], [ -120.27367, 35.020805 ], [ -120.277145, 35.017576 ], [ -120.278619, 35.01156 ], [ -120.290228, 35.015435 ], [ -120.309926, 35.00922 ], [ -120.323823, 35.017314 ], [ -120.334548, 35.006315 ], [ -120.333922, 34.995631 ], [ -120.326258, 34.985711 ], [ -120.318959, 34.98605 ], [ -120.315998, 34.984005 ], [ -120.314423, 34.979999 ], [ -120.315623, 34.974929 ], [ -120.308341, 34.970336 ], [ -120.301949, 34.963381 ], [ -120.303984, 34.956519 ], [ -120.295206, 34.948485 ], [ -120.292188, 34.931932 ], [ -120.293515, 34.92481 ], [ -120.300245, 34.915449 ], [ -120.299448, 34.907072 ], [ -120.311963, 34.903817 ], [ -120.318298, 34.907038 ], [ -120.324459, 34.919332 ], [ -120.324424, 34.922221 ], [ -120.335853, 34.931129 ], [ -120.35303, 34.939287 ], [ -120.361245, 34.946466 ], [ -120.391049, 34.963305 ], [ -120.44025, 34.988323 ], [ -120.496222, 34.993155 ], [ -120.53857, 34.983754 ], [ -120.543924, 34.979388 ], [ -120.55492, 34.973881 ], [ -120.565504, 34.977316 ], [ -120.575191, 34.978291 ], [ -120.582314, 34.972261 ], [ -120.585516, 34.967221 ], [ -120.5955, 34.966488 ], [ -120.602199, 34.972749 ], [ -120.613143, 34.971272 ], [ -120.616304, 34.965949 ], [ -120.628874, 34.962877 ], [ -120.634144, 34.959562 ], [ -120.649116, 34.974605 ], [ -120.702795, 34.999975 ], [ -120.694715, 35.028839 ], [ -120.691656, 35.060356 ], [ -120.687802, 35.077488 ], [ -120.689606, 35.098828 ], [ -120.707095, 35.10429 ] ] ] } },
{ "type": "Feature", "properties": { "GEOID": "06083", "NAME": "Santa Barbara", "NAMELSAD": "Santa Barbara County" }, "geometry": { "type": "MultiPolygon", "coordinates": [ [ [ [ -120.582264, 34.107517 ], [ -120.575089, 34.126474 ], [ -120.567847, 34.135618 ], [ -120.560998, 34.140664 ], [ -120.538118, 34.150344 ], [ -120.516039, 34.152798 ], [ -120.497378, 34.149892 ], [ -120.481429, 34.142168 ], [ -120.471654, 34.134102 ], [ -120.449074, 34.150593 ], [ -120.43272, 34.157478 ], [ -120.418787, 34.160569 ], [ -120.401169, 34.158729 ], [ -120.368746, 34.151041 ], [ -120.355161, 34.145021 ], [ -120.35049, 34.14145 ], [ -120.342712, 34.131502 ], [ -120.338562, 34.121687 ], [ -120.324337, 34.1138 ], [ -120.321087, 34.11045 ], [ -120.311711, 34.109506 ], [ -120.297787, 34.104116 ], [ -120.284651, 34.09475 ], [ -120.274285, 34.081799 ], [ -120.271579, 34.074141 ], [ -120.252846, 34.058031 ], [ -120.224878, 34.061312 ], [ -120.210383, 34.060853 ], [ -120.197576, 34.05815 ], [ -120.194114, 34.058721 ], [ -120.185461, 34.06622 ], [ -120.171128, 34.073318 ], [ -120.135006, 34.07881 ], [ -120.120132, 34.078942 ], [ -120.102918, 34.074494 ], [ -120.080285, 34.086401 ], [ -120.063327, 34.089714 ], [ -120.045154, 34.090606 ], [ -120.019503, 34.087718 ], [ -120.01021, 34.084043 ], [ -120.000963, 34.078671 ], [ -120.000963, 34.076819 ], [ -119.991643, 34.064868 ], [ -119.981947, 34.089377 ], [ -119.974386, 34.096743 ], [ -119.972361, 34.10335 ], [ -119.965471, 34.11256 ], [ -119.947835, 34.124999 ], [ -119.928795, 34.129902 ], [ -119.913364, 34.130148 ], [ -119.905575, 34.129355 ], [ -119.894178, 34.125772 ], [ -119.875985, 34.126234 ], [ -119.852087, 34.120957 ], [ -119.82922, 34.118702 ], [ -119.792601, 34.106375 ], [ -119.769032, 34.111943 ], [ -119.750981, 34.112582 ], [ -119.725973, 34.10209 ], [ -119.709463, 34.100663 ], [ -119.693007, 34.094854 ], [ -119.654931, 34.071218 ], [ -119.645169, 34.080055 ], [ -119.614268, 34.099432 ], [ -119.599892, 34.104007 ], [ -119.581973, 34.105732 ], [ -119.574116, 34.108113 ], [ -119.548251, 34.107783 ], [ -119.538419, 34.105413 ], [ -119.512106, 34.09346 ], [ -119.49749, 34.082755 ], [ -119.488752, 34.079195 ], [ -119.477308, 34.071826 ], [ -119.468064, 34.063139 ], [ -119.49229, 33.983215 ], [ -119.500952, 33.971484 ], [ -119.512244, 33.962199 ], [ -119.523312, 33.954925 ], [ -119.538949, 33.947656 ], [ -119.550467, 33.944953 ], [ -119.563291, 33.944955 ], [ -119.572447, 33.941138 ], [ -119.59069, 33.939578 ], [ -119.602085, 33.936768 ], [ -119.625957, 33.936036 ], [ -119.63673, 33.938277 ], [ -119.687596, 33.915639 ], [ -119.707491, 33.910388 ], [ -119.731419, 33.910274 ], [ -119.741344, 33.912619 ], [ -119.758558, 33.910798 ], [ -119.772829, 33.912414 ], [ -119.778315, 33.910612 ], [ -119.789372, 33.910131 ], [ -119.810224, 33.901324 ], [ -119.823208, 33.89939 ], [ -119.83442, 33.900788 ], [ -119.855219, 33.907487 ], [ -119.884053, 33.925984 ], [ -119.896244, 33.935742 ], [ -119.904762, 33.939674 ], [ -119.911023, 33.923898 ], [ -119.91893, 33.914354 ], [ -119.93919, 33.898643 ], [ -119.950294, 33.894376 ], [ -119.962681, 33.89244 ], [ -119.972387, 33.891378 ], [ -119.980842, 33.892317 ], [ -120.00096, 33.885248 ], [ -120.015411, 33.875148 ], [ -120.019339, 33.870555 ], [ -120.02781, 33.866512 ], [ -120.034538, 33.864476 ], [ -120.047909, 33.863592 ], [ -120.07065, 33.85649 ], [ -120.080106, 33.850506 ], [ -120.104088, 33.842396 ], [ -120.117266, 33.84158 ], [ -120.139927, 33.844799 ], [ -120.149551, 33.847962 ], [ -120.157079, 33.853425 ], [ -120.17032, 33.857416 ], [ -120.183, 33.866287 ], [ -120.188216, 33.86636 ], [ -120.193391, 33.868528 ], [ -120.199514, 33.875002 ], [ -120.221128, 33.884187 ], [ -120.23872, 33.904106 ], [ -120.250969, 33.908436 ], [ -120.264495, 33.918916 ], [ -120.273096, 33.929577 ], [ -120.280033, 33.953939 ], [ -120.298973, 33.968457 ], [ -120.308198, 33.966406 ], [ -120.317386, 33.966371 ], [ -120.327035, 33.966729 ], [ -120.332253, 33.968425 ], [ -120.346874, 33.963494 ], [ -120.367073, 33.961036 ], [ -120.395636, 33.967427 ], [ -120.411766, 33.977045 ], [ -120.432181, 33.974703 ], [ -120.446192, 33.977373 ], [ -120.466777, 33.976116 ], [ -120.480766, 33.980262 ], [ -120.488151, 33.984283 ], [ -120.497726, 33.991199 ], [ -120.500992, 33.996303 ], [ -120.506202, 33.999996 ], [ -120.518784, 34.01408 ], [ -120.525852, 34.032994 ], [ -120.526452, 34.041455 ], [ -120.523387, 34.051133 ], [ -120.531063, 34.051687 ], [ -120.550051, 34.057286 ], [ -120.559385, 34.062376 ], [ -120.566995, 34.068638 ], [ -120.573808, 34.075966 ], [ -120.581548, 34.091488 ], [ -120.582264, 34.107517 ] ] ], [ [ [ -120.734327, 34.904751 ], [ -120.731949, 34.914303 ], [ -120.72723, 34.923316 ], [ -120.728506, 34.931647 ], [ -120.726753, 34.943805 ], [ -120.720262, 34.956293 ], [ -120.71444, 34.963541 ], [ -120.702795, 34.999975 ], [ -120.649116, 34.974605 ], [ -120.634144, 34.959562 ], [ -120.628874, 34.962877 ], [ -120.616304, 34.965949 ], [ -120.613143, 34.971272 ], [ -120.602199, 34.972749 ], [ -120.5955, 34.966488 ], [ -120.585516, 34.967221 ], [ -120.582314, 34.972261 ], [ -120.575191, 34.978291 ], [ -120.565504, 34.977316 ], [ -120.55492, 34.973881 ], [ -120.543924, 34.979388 ], [ -120.53857, 34.983754 ], [ -120.496222, 34.993155 ], [ -120.44025, 34.988323 ], [ -120.391049, 34.963305 ], [ -120.361245, 34.946466 ], [ -120.35303, 34.939287 ], [ -120.335853, 34.931129 ], [ -120.324424, 34.922221 ], [ -120.324459, 34.919332 ], [ -120.317651, 34.90655 ], [ -120.311498, 34.903764 ], [ -120.301827, 34.905571 ], [ -120.298848, 34.908787 ], [ -120.299928, 34.916333 ], [ -120.293515, 34.92481 ], [ -120.29218, 34.93031 ], [ -120.294548, 34.946594 ], [ -120.295913, 34.949736 ], [ -120.303842, 34.956115 ], [ -120.301949, 34.963381 ], [ -120.308341, 34.970336 ], [ -120.315623, 34.974929 ], [ -120.314423, 34.979999 ], [ -120.315998, 34.984005 ], [ -120.318959, 34.98605 ], [ -120.326258, 34.985711 ], [ -120.333922, 34.995631 ], [ -120.334548, 35.006315 ], [ -120.323823, 35.017314 ], [ -120.309926, 35.00922 ], [ -120.290228, 35.015435 ], [ -120.278619, 35.01156 ], [ -120.277145, 35.017576 ], [ -120.27367, 35.020805 ], [ -120.266593, 35.021257 ], [ -120.261396, 35.026606 ], [ -120.259941, 35.025916 ], [ -120.261321, 35.021368 ], [ -120.257451, 35.017589 ], [ -120.25272, 35.028144 ], [ -120.249988, 35.030059 ], [ -120.247684, 35.026531 ], [ -120.24068, 35.02243 ], [ -120.232974, 35.023552 ], [ -120.231799, 35.020515 ], [ -120.224574, 35.022735 ], [ -120.220934, 35.02111 ], [ -120.215769, 35.022617 ], [ -120.209907, 35.020582 ], [ -120.21029, 35.023767 ], [ -120.204766, 35.025482 ], [ -120.203324, 35.028655 ], [ -120.188383, 35.030378 ], [ -120.186401, 35.036552 ], [ -120.180504, 35.038035 ], [ -120.184913, 35.049094 ], [ -120.180572, 35.054706 ], [ -120.180145, 35.061606 ], [ -120.172934, 35.064269 ], [ -120.172782, 35.068514 ], [ -120.174636, 35.068903 ], [ -120.174575, 35.070242 ], [ -120.171706, 35.070254 ], [ -120.167616, 35.075297 ], [ -120.155568, 35.078104 ], [ -120.155271, 35.081995 ], [ -120.149388, 35.081469 ], [ -120.148968, 35.084452 ], [ -120.142918, 35.082216 ], [ -120.140873, 35.086802 ], [ -120.144192, 35.086786 ], [ -120.145344, 35.08819 ], [ -120.144268, 35.090475 ], [ -120.141514, 35.091066 ], [ -120.14317, 35.095739 ], [ -120.138332, 35.094182 ], [ -120.135967, 35.09786 ], [ -120.132213, 35.095403 ], [ -120.130039, 35.096117 ], [ -120.130496, 35.091505 ], [ -120.127612, 35.09091 ], [ -120.124377, 35.099695 ], [ -120.12221, 35.097761 ], [ -120.119332, 35.098447 ], [ -120.119677, 35.102922 ], [ -120.11674, 35.104428 ], [ -120.116861, 35.106676 ], [ -120.11268, 35.103513 ], [ -120.109598, 35.103486 ], [ -120.1074, 35.104722 ], [ -120.108331, 35.108884 ], [ -120.102279, 35.108445 ], [ -120.102174, 35.113359 ], [ -120.09977, 35.112916 ], [ -120.097913, 35.109502 ], [ -120.093277, 35.114202 ], [ -120.088287, 35.112977 ], [ -120.082084, 35.114678 ], [ -120.079307, 35.112672 ], [ -120.083397, 35.109574 ], [ -120.085419, 35.10971 ], [ -120.084938, 35.10761 ], [ -120.080739, 35.104895 ], [ -120.072415, 35.10471 ], [ -120.071984, 35.101826 ], [ -120.067313, 35.096762 ], [ -120.061219, 35.095354 ], [ -120.05994, 35.092972 ], [ -120.048521, 35.089901 ], [ -120.044038, 35.085993 ], [ -120.041873, 35.085864 ], [ -120.039558, 35.089152 ], [ -120.032817, 35.087824 ], [ -120.029313, 35.083571 ], [ -120.025825, 35.08484 ], [ -120.024078, 35.08404 ], [ -120.024857, 35.080964 ], [ -120.023322, 35.080311 ], [ -120.018264, 35.082358 ], [ -120.014049, 35.081447 ], [ -120.013582, 35.075578 ], [ -120.00981, 35.07529 ], [ -120.005596, 35.071799 ], [ -120.002017, 35.073205 ], [ -119.992559, 35.062931 ], [ -119.988558, 35.064929 ], [ -119.982453, 35.061191 ], [ -119.979662, 35.061865 ], [ -119.979639, 35.059107 ], [ -119.981278, 35.058322 ], [ -119.980122, 35.057573 ], [ -119.977872, 35.059476 ], [ -119.97572, 35.058266 ], [ -119.970927, 35.058757 ], [ -119.966946, 35.056322 ], [ -119.965022, 35.058825 ], [ -119.961909, 35.058328 ], [ -119.960689, 35.055712 ], [ -119.955784, 35.057179 ], [ -119.955888, 35.054896 ], [ -119.95427, 35.054588 ], [ -119.95221, 35.05734 ], [ -119.948766, 35.057177 ], [ -119.949221, 35.055929 ], [ -119.94557, 35.056054 ], [ -119.94507, 35.054561 ], [ -119.94272, 35.054439 ], [ -119.93992, 35.05801 ], [ -119.937861, 35.057083 ], [ -119.939005, 35.054992 ], [ -119.931612, 35.056343 ], [ -119.928419, 35.059794 ], [ -119.921791, 35.052543 ], [ -119.918359, 35.053142 ], [ -119.917307, 35.048977 ], [ -119.909429, 35.045953 ], [ -119.912102, 35.044691 ], [ -119.908291, 35.043553 ], [ -119.910251, 35.039563 ], [ -119.906949, 35.039176 ], [ -119.907066, 35.03791 ], [ -119.901898, 35.039004 ], [ -119.901968, 35.035793 ], [ -119.889652, 35.040629 ], [ -119.878272, 35.039713 ], [ -119.875087, 35.035689 ], [ -119.865997, 35.035083 ], [ -119.863329, 35.031425 ], [ -119.854517, 35.032149 ], [ -119.851513, 35.030704 ], [ -119.851473, 35.027551 ], [ -119.84798, 35.025418 ], [ -119.84417, 35.015476 ], [ -119.84118, 35.015015 ], [ -119.830825, 35.005781 ], [ -119.82436, 35.004951 ], [ -119.81317, 35.00067 ], [ -119.809949, 35.002097 ], [ -119.803878, 34.997613 ], [ -119.801025, 34.998859 ], [ -119.798997, 34.993249 ], [ -119.789292, 34.98867 ], [ -119.785656, 34.988273 ], [ -119.780402, 34.990729 ], [ -119.763859, 34.982084 ], [ -119.755039, 34.980007 ], [ -119.745566, 34.973676 ], [ -119.740067, 34.973076 ], [ -119.72933, 34.974649 ], [ -119.727005, 34.976132 ], [ -119.724667, 34.973577 ], [ -119.718565, 34.971476 ], [ -119.708465, 34.975476 ], [ -119.700564, 34.976674 ], [ -119.684564, 34.972068 ], [ -119.678624, 34.971775 ], [ -119.673563, 34.973575 ], [ -119.664269, 34.969876 ], [ -119.655282, 34.963801 ], [ -119.644262, 34.953575 ], [ -119.634861, 34.953875 ], [ -119.624761, 34.949175 ], [ -119.61502, 34.950351 ], [ -119.59246, 34.935076 ], [ -119.586059, 34.927275 ], [ -119.579859, 34.922775 ], [ -119.562958, 34.914775 ], [ -119.535757, 34.897576 ], [ -119.490455, 34.897475 ], [ -119.490355, 34.901174 ], [ -119.443691, 34.901171 ], [ -119.441582, 34.451867 ], [ -119.443291, 34.449525 ], [ -119.44149, 34.447915 ], [ -119.440414, 34.441842 ], [ -119.443672, 34.43667 ], [ -119.444717, 34.42951 ], [ -119.453141, 34.428945 ], [ -119.45301, 34.423033 ], [ -119.454582, 34.421633 ], [ -119.454422, 34.418334 ], [ -119.445411, 34.408881 ], [ -119.44694, 34.401952 ], [ -119.449081, 34.401717 ], [ -119.451805, 34.39699 ], [ -119.459396, 34.391963 ], [ -119.468727, 34.388404 ], [ -119.468414, 34.386607 ], [ -119.472687, 34.383662 ], [ -119.473015, 34.379489 ], [ -119.477707, 34.379649 ], [ -119.476653, 34.373195 ], [ -119.500953, 34.326922 ], [ -119.519472, 34.336069 ], [ -119.52291, 34.335919 ], [ -119.527918, 34.338771 ], [ -119.532654, 34.33877 ], [ -119.54785, 34.344362 ], [ -119.555829, 34.345019 ], [ -119.574545, 34.353816 ], [ -119.584795, 34.36166 ], [ -119.590294, 34.361209 ], [ -119.602061, 34.363654 ], [ -119.617462, 34.36873 ], [ -119.625962, 34.366216 ], [ -119.651357, 34.366708 ], [ -119.66611, 34.354464 ], [ -119.689314, 34.344095 ], [ -119.713644, 34.336029 ], [ -119.732023, 34.339696 ], [ -119.797067, 34.365331 ], [ -119.805805, 34.36534 ], [ -119.823148, 34.357047 ], [ -119.837921, 34.354318 ], [ -119.85527, 34.35433 ], [ -119.865898, 34.357186 ], [ -119.87597, 34.355641 ], [ -119.883874, 34.356144 ], [ -119.898502, 34.360358 ], [ -119.916529, 34.37261 ], [ -119.923395, 34.373453 ], [ -120.009416, 34.401535 ], [ -120.024356, 34.409343 ], [ -120.036136, 34.409948 ], [ -120.044814, 34.412454 ], [ -120.056788, 34.409935 ], [ -120.070301, 34.409769 ], [ -120.076435, 34.411116 ], [ -120.09067, 34.409286 ], [ -120.108309, 34.412891 ], [ -120.13512, 34.422061 ], [ -120.14728, 34.422916 ], [ -120.163636, 34.420361 ], [ -120.191754, 34.419988 ], [ -120.202828, 34.422208 ], [ -120.240604, 34.417456 ], [ -120.264735, 34.41768 ], [ -120.280222, 34.416298 ], [ -120.287125, 34.417609 ], [ -120.324511, 34.409748 ], [ -120.340003, 34.409424 ], [ -120.348871, 34.407324 ], [ -120.367335, 34.408486 ], [ -120.386922, 34.405653 ], [ -120.397982, 34.401018 ], [ -120.426032, 34.396745 ], [ -120.436246, 34.393179 ], [ -120.450998, 34.391184 ], [ -120.488091, 34.398278 ], [ -120.500999, 34.403136 ], [ -120.523646, 34.419505 ], [ -120.530189, 34.428877 ], [ -120.535572, 34.439521 ], [ -120.535664, 34.452695 ], [ -120.544586, 34.460221 ], [ -120.553105, 34.47101 ], [ -120.559439, 34.488466 ], [ -120.58151, 34.496632 ], [ -120.594334, 34.504072 ], [ -120.603998, 34.502067 ], [ -120.632575, 34.502687 ], [ -120.64236, 34.503765 ], [ -120.656058, 34.508598 ], [ -120.684529, 34.527131 ], [ -120.694987, 34.540634 ], [ -120.703968, 34.548495 ], [ -120.707951, 34.554898 ], [ -120.712757, 34.568297 ], [ -120.713329, 34.57496 ], [ -120.712134, 34.584202 ], [ -120.707089, 34.597501 ], [ -120.708562, 34.606094 ], [ -120.707183, 34.616211 ], [ -120.701283, 34.630007 ], [ -120.68648, 34.645023 ], [ -120.664691, 34.696344 ], [ -120.665845, 34.69943 ], [ -120.677308, 34.709743 ], [ -120.684655, 34.721078 ], [ -120.693234, 34.730042 ], [ -120.698276, 34.737832 ], [ -120.702093, 34.748329 ], [ -120.702226, 34.760215 ], [ -120.699795, 34.770861 ], [ -120.692889, 34.782664 ], [ -120.68442, 34.803657 ], [ -120.673281, 34.838624 ], [ -120.684098, 34.844526 ], [ -120.6956, 34.854585 ], [ -120.712967, 34.862902 ], [ -120.720319, 34.869241 ], [ -120.730679, 34.886427 ], [ -120.73382, 34.896041 ], [ -120.734327, 34.904751 ] ] ], [ [ [ -119.118949, 33.500022 ], [ -119.111656, 33.515471 ], [ -119.104211, 33.522888 ], [ -119.090493, 33.530296 ], [ -119.076497, 33.535148 ], [ -119.066162, 33.536712 ], [ -119.056555, 33.536026 ], [ -119.036246, 33.539622 ], [ -119.023943, 33.540003 ], [ -119.000932, 33.535895 ], [ -118.992796, 33.531849 ], [ -118.982149, 33.52426 ], [ -118.972886, 33.513835 ], [ -118.966018, 33.500023 ], [ -118.962759, 33.485205 ], [ -118.963751, 33.46683 ], [ -118.978481, 33.431106 ], [ -118.980512, 33.428593 ], [ -118.995985, 33.419963 ], [ -119.000931, 33.418493 ], [ -119.000931, 33.421302 ], [ -119.009524, 33.416767 ], [ -119.027044, 33.412874 ], [ -119.053071, 33.411024 ], [ -119.071893, 33.413799 ], [ -119.078511, 33.416765 ], [ -119.094128, 33.426872 ], [ -119.100761, 33.435242 ], [ -119.108879, 33.451151 ], [ -119.109569, 33.474276 ], [ -119.107215, 33.500023 ], [ -119.118949, 33.500022 ] ] ] ] } }
]
}
